{
  "type": "FeatureCollection",
  "features": [
    {
      "type": "Feature",
      "properties": {
        "norad_id": 36682,
        "name": "FENGYUN 1C DEB",
        "group": "fengyun-1c-debris",
        "lat": -68.4929243400898,
        "lon": 52.55070454121264,
        "alt_km": 839.1646061452748,
        "timestamp": "2025-12-17T13:48:37.842514+00:00",
        "meta_object_name": "FENGYUN 1C DEB",
        "meta_object_id": "1999-025DZC",
        "meta_epoch": "2025-12-15T04:29:39.952608",
        "meta_mean_motion": 13.70143194,
        "meta_eccentricity": 0.023343,
        "meta_inclination": 98.4849,
        "meta_ra_of_asc_node": 252.7018,
        "meta_arg_of_pericenter": 270.8269,
        "meta_mean_anomaly": 86.6143,
        "meta_ephemeris_type": 0,
        "meta_classification_type": "U",
        "meta_norad_cat_id": 36682,
        "meta_element_set_no": 999,
        "meta_rev_at_epoch": 61426,
        "meta_bstar": 0.0010985687,
        "meta_mean_motion_dot": 1.133e-05,
        "meta_mean_motion_ddot": 0,
        "tle_line1": "1 36682U 99025DZC 25349.18726797  .00001133  00000+0  10986-2 0  9993",
        "tle_line2": "2 36682  98.4849 252.7018 0233430 270.8269  86.6143 13.70143194614263"
      },
      "geometry": {
        "type": "Point",
        "coordinates": [
          52.55070454121264,
          -68.4929243400898
        ]
      }
    },
    {
      "type": "Feature",
      "properties": {
        "norad_id": 36684,
        "name": "FENGYUN 1C DEB",
        "group": "fengyun-1c-debris",
        "lat": 12.628190628278642,
        "lon": -93.14107105771743,
        "alt_km": 574.1216824990297,
        "timestamp": "2025-12-17T13:48:37.842524+00:00",
        "meta_object_name": "FENGYUN 1C DEB",
        "meta_object_id": "1999-025DZE",
        "meta_epoch": "2025-12-17T05:02:48.814944",
        "meta_mean_motion": 14.96853969,
        "meta_eccentricity": 0.00186873,
        "meta_inclination": 99.4565,
        "meta_ra_of_asc_node": 84.278,
        "meta_arg_of_pericenter": 94.2535,
        "meta_mean_anomaly": 266.0817,
        "meta_ephemeris_type": 0,
        "meta_classification_type": "U",
        "meta_norad_cat_id": 36684,
        "meta_element_set_no": 999,
        "meta_rev_at_epoch": 65968,
        "meta_bstar": 0.0039120362,
        "meta_mean_motion_dot": 0.00045205,
        "meta_mean_motion_ddot": 0,
        "tle_line1": "1 36684U 99025DZE 25351.21028721  .00045205  00000+0  39120-2 0  9993",
        "tle_line2": "2 36684  99.4565  84.2780 0018687  94.2535 266.0817 14.96853969659688"
      },
      "geometry": {
        "type": "Point",
        "coordinates": [
          -93.14107105771743,
          12.628190628278642
        ]
      }
    },
    {
      "type": "Feature",
      "properties": {
        "norad_id": 36686,
        "name": "FENGYUN 1C DEB",
        "group": "fengyun-1c-debris",
        "lat": 68.90174596776525,
        "lon": 159.28040762320794,
        "alt_km": 568.9251005003453,
        "timestamp": "2025-12-17T13:48:37.842533+00:00",
        "meta_object_name": "FENGYUN 1C DEB",
        "meta_object_id": "1999-025DZG",
        "meta_epoch": "2025-12-15T19:13:56.169984",
        "meta_mean_motion": 14.77248655,
        "meta_eccentricity": 0.0105012,
        "meta_inclination": 99.0012,
        "meta_ra_of_asc_node": 181.5592,
        "meta_arg_of_pericenter": 43.8778,
        "meta_mean_anomaly": 317.071,
        "meta_ephemeris_type": 0,
        "meta_classification_type": "U",
        "meta_norad_cat_id": 36686,
        "meta_element_set_no": 999,
        "meta_rev_at_epoch": 65897,
        "meta_bstar": 0.00049760395,
        "meta_mean_motion_dot": 3.796e-05,
        "meta_mean_motion_ddot": 0,
        "tle_line1": "1 36686U 99025DZG 25349.80134456  .00003796  00000+0  49760-3 0  9991",
        "tle_line2": "2 36686  99.0012 181.5592 0105012  43.8778 317.0710 14.77248655658972"
      },
      "geometry": {
        "type": "Point",
        "coordinates": [
          159.28040762320794,
          68.90174596776525
        ]
      }
    },
    {
      "type": "Feature",
      "properties": {
        "norad_id": 36687,
        "name": "FENGYUN 1C DEB",
        "group": "fengyun-1c-debris",
        "lat": 44.442639438576876,
        "lon": 69.16310020677047,
        "alt_km": 932.7095251499031,
        "timestamp": "2025-12-17T13:48:37.842543+00:00",
        "meta_object_name": "FENGYUN 1C DEB",
        "meta_object_id": "1999-025DZH",
        "meta_epoch": "2025-12-09T12:23:51.138240",
        "meta_mean_motion": 14.04528107,
        "meta_eccentricity": 0.00903007,
        "meta_inclination": 98.7162,
        "meta_ra_of_asc_node": 70.0789,
        "meta_arg_of_pericenter": 274.4984,
        "meta_mean_anomaly": 84.5872,
        "meta_ephemeris_type": 0,
        "meta_classification_type": "U",
        "meta_norad_cat_id": 36687,
        "meta_element_set_no": 999,
        "meta_rev_at_epoch": 62677,
        "meta_bstar": 0.00041265981,
        "meta_mean_motion_dot": 6.4e-06,
        "meta_mean_motion_ddot": 0,
        "tle_line1": "1 36687U 99025DZH 25343.51656410  .00000640  00000+0  41266-3 0  9991",
        "tle_line2": "2 36687  98.7162  70.0789 0090300 274.4984  84.5872 14.04528107626770"
      },
      "geometry": {
        "type": "Point",
        "coordinates": [
          69.16310020677047,
          44.442639438576876
        ]
      }
    },
    {
      "type": "Feature",
      "properties": {
        "norad_id": 36689,
        "name": "FENGYUN 1C DEB",
        "group": "fengyun-1c-debris",
        "lat": 40.05057584828681,
        "lon": -122.32078554418987,
        "alt_km": 1081.3825462389004,
        "timestamp": "2025-12-17T13:48:37.842552+00:00",
        "meta_object_name": "FENGYUN 1C DEB",
        "meta_object_id": "1999-025DZK",
        "meta_epoch": "2025-11-28T10:04:14.213280",
        "meta_mean_motion": 13.74189275,
        "meta_eccentricity": 0.03131537,
        "meta_inclination": 98.4796,
        "meta_ra_of_asc_node": 227.8431,
        "meta_arg_of_pericenter": 334.7216,
        "meta_mean_anomaly": 23.8887,
        "meta_ephemeris_type": 0,
        "meta_classification_type": "U",
        "meta_norad_cat_id": 36689,
        "meta_element_set_no": 999,
        "meta_rev_at_epoch": 58016,
        "meta_bstar": 0.0027905602,
        "meta_mean_motion_dot": 3.71e-05,
        "meta_mean_motion_ddot": 0,
        "tle_line1": "1 36689U 99025DZK 25332.41960895  .00003710  00000+0  27906-2 0  9990",
        "tle_line2": "2 36689  98.4796 227.8431 0313153 334.7216  23.8887 13.74189275580169"
      },
      "geometry": {
        "type": "Point",
        "coordinates": [
          -122.32078554418987,
          40.05057584828681
        ]
      }
    },
    {
      "type": "Feature",
      "properties": {
        "norad_id": 36691,
        "name": "FENGYUN 1C DEB",
        "group": "fengyun-1c-debris",
        "lat": 72.97463618714254,
        "lon": -38.276742784512436,
        "alt_km": 939.551511027049,
        "timestamp": "2025-12-17T13:48:37.842562+00:00",
        "meta_object_name": "FENGYUN 1C DEB",
        "meta_object_id": "1999-025DZM",
        "meta_epoch": "2025-12-08T17:50:07.073952",
        "meta_mean_motion": 14.07105067,
        "meta_eccentricity": 0.01290803,
        "meta_inclination": 98.6374,
        "meta_ra_of_asc_node": 343.0423,
        "meta_arg_of_pericenter": 246.8073,
        "meta_mean_anomaly": 111.9457,
        "meta_ephemeris_type": 0,
        "meta_classification_type": "U",
        "meta_norad_cat_id": 36691,
        "meta_element_set_no": 999,
        "meta_rev_at_epoch": 59553,
        "meta_bstar": 0.0032098608,
        "meta_mean_motion_dot": 5.753e-05,
        "meta_mean_motion_ddot": 0,
        "tle_line1": "1 36691U 99025DZM 25342.74313743  .00005753  00000+0  32099-2 0  9992",
        "tle_line2": "2 36691  98.6374 343.0423 0129080 246.8073 111.9457 14.07105067595539"
      },
      "geometry": {
        "type": "Point",
        "coordinates": [
          -38.276742784512436,
          72.97463618714254
        ]
      }
    },
    {
      "type": "Feature",
      "properties": {
        "norad_id": 36692,
        "name": "FENGYUN 1C DEB",
        "group": "fengyun-1c-debris",
        "lat": -20.197544777706987,
        "lon": 74.30775587819522,
        "alt_km": 1000.784863131481,
        "timestamp": "2025-12-17T13:48:37.842571+00:00",
        "meta_object_name": "FENGYUN 1C DEB",
        "meta_object_id": "1999-025DZN",
        "meta_epoch": "2025-12-04T12:56:52.897632",
        "meta_mean_motion": 13.93448865,
        "meta_eccentricity": 0.0115856,
        "meta_inclination": 99.9932,
        "meta_ra_of_asc_node": 243.9547,
        "meta_arg_of_pericenter": 34.8482,
        "meta_mean_anomaly": 326.0192,
        "meta_ephemeris_type": 0,
        "meta_classification_type": "U",
        "meta_norad_cat_id": 36692,
        "meta_element_set_no": 999,
        "meta_rev_at_epoch": 59691,
        "meta_bstar": 0.0009556,
        "meta_mean_motion_dot": 1.272e-05,
        "meta_mean_motion_ddot": 0,
        "tle_line1": "1 36692U 99025DZN 25338.53950113  .00001272  00000+0  95560-3 0  9998",
        "tle_line2": "2 36692  99.9932 243.9547 0115856  34.8482 326.0192 13.93448865596912"
      },
      "geometry": {
        "type": "Point",
        "coordinates": [
          74.30775587819522,
          -20.197544777706987
        ]
      }
    }
  ]
}